{
  "type": "FeatureCollection",
  "features": [
    {
      "type": "Feature",
      "properties": {
        "norad_id": 37487,
        "name": "COSMOS 2251 DEB",
        "group": "cosmos-2251-debris",
        "lat": -47.93964673400795,
        "lon": 164.04936009080419,
        "alt_km": 625.5150348638081,
        "timestamp": "2025-12-17T10:52:54.750163+00:00",
        "meta_object_name": "COSMOS 2251 DEB",
        "meta_object_id": "1993-036BLQ",
        "meta_epoch": "2025-12-12T06:17:24.389376",
        "meta_mean_motion": 14.80982589,
        "meta_eccentricity": 0.00255931,
        "meta_inclination": 73.9026,
        "meta_ra_of_asc_node": 193.0379,
        "meta_arg_of_pericenter": 31.2136,
        "meta_mean_anomaly": 329.0553,
        "meta_ephemeris_type": 0,
        "meta_classification_type": "U",
        "meta_norad_cat_id": 37487,
        "meta_element_set_no": 999,
        "meta_rev_at_epoch": 81238,
        "meta_bstar": 0.0042593386,
        "meta_mean_motion_dot": 0.00033302,
        "meta_mean_motion_ddot": 0,
        "tle_line1": "1 37487U 93036BLQ 25346.26208784  .00033302  00000+0  42593-2 0  9992",
        "tle_line2": "2 37487  73.9026 193.0379 0025593  31.2136 329.0553 14.80982589812383"
      },
      "geometry": {
        "type": "Point",
        "coordinates": [
          164.04936009080419,
          -47.93964673400795
        ]
      }
    },
    {
      "type": "Feature",
      "properties": {
        "norad_id": 37491,
        "name": "COSMOS 2251 DEB",
        "group": "cosmos-2251-debris",
        "lat": 68.07765204958858,
        "lon": -47.97439381709705,
        "alt_km": 1206.5024103648975,
        "timestamp": "2025-12-17T10:52:54.750174+00:00",
        "meta_object_name": "COSMOS 2251 DEB",
        "meta_object_id": "1993-036BLU",
        "meta_epoch": "2025-12-16T01:20:01.568544",
        "meta_mean_motion": 13.75301239,
        "meta_eccentricity": 0.03170701,
        "meta_inclination": 73.906,
        "meta_ra_of_asc_node": 268.5319,
        "meta_arg_of_pericenter": 261.0181,
        "meta_mean_anomaly": 95.4932,
        "meta_ephemeris_type": 0,
        "meta_classification_type": "U",
        "meta_norad_cat_id": 37491,
        "meta_element_set_no": 999,
        "meta_rev_at_epoch": 55792,
        "meta_bstar": 0.00075694547,
        "meta_mean_motion_dot": 1.022e-05,
        "meta_mean_motion_ddot": 0,
        "tle_line1": "1 37491U 93036BLU 25350.05557371  .00001022  00000+0  75695-3 0  9992",
        "tle_line2": "2 37491  73.9060 268.5319 0317070 261.0181  95.4932 13.75301239557926"
      },
      "geometry": {
        "type": "Point",
        "coordinates": [
          -47.97439381709705,
          68.07765204958858
        ]
      }
    },
    {
      "type": "Feature",
      "properties": {
        "norad_id": 37498,
        "name": "COSMOS 2251 DEB",
        "group": "cosmos-2251-debris",
        "lat": 28.066485395868714,
        "lon": -176.25387512592388,
        "alt_km": 715.9684063890054,
        "timestamp": "2025-12-17T10:52:54.750184+00:00",
        "meta_object_name": "COSMOS 2251 DEB",
        "meta_object_id": "1993-036BMB",
        "meta_epoch": "2025-12-14T06:49:44.183424",
        "meta_mean_motion": 14.54779293,
        "meta_eccentricity": 0.00119872,
        "meta_inclination": 74.0355,
        "meta_ra_of_asc_node": 180.9606,
        "meta_arg_of_pericenter": 244.0007,
        "meta_mean_anomaly": 115.9922,
        "meta_ephemeris_type": 0,
        "meta_classification_type": "U",
        "meta_norad_cat_id": 37498,
        "meta_element_set_no": 999,
        "meta_rev_at_epoch": 65377,
        "meta_bstar": 0.00061481383,
        "meta_mean_motion_dot": 2.61e-05,
        "meta_mean_motion_ddot": 0,
        "tle_line1": "1 37498U 93036BMB 25348.28453916  .00002610  00000+0  61481-3 0  9993",
        "tle_line2": "2 37498  74.0355 180.9606 0011987 244.0007 115.9922 14.54779293653778"
      },
      "geometry": {
        "type": "Point",
        "coordinates": [
          -176.25387512592388,
          28.066485395868714
        ]
      }
    },
    {
      "type": "Feature",
      "properties": {
        "norad_id": 37499,
        "name": "COSMOS 2251 DEB",
        "group": "cosmos-2251-debris",
        "lat": -68.2436406795608,
        "lon": 179.38214094379092,
        "alt_km": 797.3931646881547,
        "timestamp": "2025-12-17T10:52:54.750194+00:00",
        "meta_object_name": "COSMOS 2251 DEB",
        "meta_object_id": "1993-036BMC",
        "meta_epoch": "2025-12-16T15:17:00.283776",
        "meta_mean_motion": 14.34346206,
        "meta_eccentricity": 0.00270928,
        "meta_inclination": 74.0379,
        "meta_ra_of_asc_node": 315.0551,
        "meta_arg_of_pericenter": 29.8963,
        "meta_mean_anomaly": 330.3729,
        "meta_ephemeris_type": 0,
        "meta_classification_type": "U",
        "meta_norad_cat_id": 37499,
        "meta_element_set_no": 999,
        "meta_rev_at_epoch": 85205,
        "meta_bstar": 0.0001595239,
        "meta_mean_motion_dot": 4.24e-06,
        "meta_mean_motion_ddot": 0,
        "tle_line1": "1 37499U 93036BMC 25350.63680884  .00000424  00000+0  15952-3 0  9995",
        "tle_line2": "2 37499  74.0379 315.0551 0027092  29.8963 330.3729 14.34346206852051"
      },
      "geometry": {
        "type": "Point",
        "coordinates": [
          179.38214094379092,
          -68.2436406795608
        ]
      }
    },
    {
      "type": "Feature",
      "properties": {
        "norad_id": 37528,
        "name": "COSMOS 2251 DEB",
        "group": "cosmos-2251-debris",
        "lat": -33.15716760060162,
        "lon": 102.50158664644378,
        "alt_km": 723.2566187859657,
        "timestamp": "2025-12-17T10:52:54.750204+00:00",
        "meta_object_name": "COSMOS 2251 DEB",
        "meta_object_id": "1993-036BNH",
        "meta_epoch": "2025-12-15T01:06:28.524672",
        "meta_mean_motion": 14.50529605,
        "meta_eccentricity": 0.0021174,
        "meta_inclination": 74.0366,
        "meta_ra_of_asc_node": 117.8019,
        "meta_arg_of_pericenter": 265.761,
        "meta_mean_anomaly": 94.113,
        "meta_ephemeris_type": 0,
        "meta_classification_type": "U",
        "meta_norad_cat_id": 37528,
        "meta_element_set_no": 999,
        "meta_rev_at_epoch": 85964,
        "meta_bstar": 0.00041051678,
        "meta_mean_motion_dot": 1.584e-05,
        "meta_mean_motion_ddot": 0,
        "tle_line1": "1 37528U 93036BNH 25349.04616348  .00001584  00000+0  41052-3 0  9993",
        "tle_line2": "2 37528  74.0366 117.8019 0021174 265.7610  94.1130 14.50529605859649"
      },
      "geometry": {
        "type": "Point",
        "coordinates": [
          102.50158664644378,
          -33.15716760060162
        ]
      }
    },
    {
      "type": "Feature",
      "properties": {
        "norad_id": 37530,
        "name": "COSMOS 2251 DEB",
        "group": "cosmos-2251-debris",
        "lat": -36.22276010749086,
        "lon": -47.09356026333935,
        "alt_km": 774.3431824960371,
        "timestamp": "2025-12-17T10:52:54.750214+00:00",
        "meta_object_name": "COSMOS 2251 DEB",
        "meta_object_id": "1993-036BNK",
        "meta_epoch": "2025-12-16T15:31:15.279168",
        "meta_mean_motion": 14.34508686,
        "meta_eccentricity": 0.00259991,
        "meta_inclination": 74.0359,
        "meta_ra_of_asc_node": 326.4868,
        "meta_arg_of_pericenter": 27.4409,
        "meta_mean_anomaly": 90.6459,
        "meta_ephemeris_type": 0,
        "meta_classification_type": "U",
        "meta_norad_cat_id": 37530,
        "meta_element_set_no": 999,
        "meta_rev_at_epoch": 85288,
        "meta_bstar": 0.00021920121,
        "meta_mean_motion_dot": 5.94e-06,
        "meta_mean_motion_ddot": 0,
        "tle_line1": "1 37530U 93036BNK 25350.64670462  .00000594  00000+0  21920-3 0  9993",
        "tle_line2": "2 37530  74.0359 326.4868 0025999  27.4409  90.6459 14.34508686852884"
      },
      "geometry": {
        "type": "Point",
        "coordinates": [
          -47.09356026333935,
          -36.22276010749086
        ]
      }
    },
    {
      "type": "Feature",
      "properties": {
        "norad_id": 37532,
        "name": "COSMOS 2251 DEB",
        "group": "cosmos-2251-debris",
        "lat": -53.30913184040289,
        "lon": 49.556814810481434,
        "alt_km": 753.3089363587387,
        "timestamp": "2025-12-17T10:52:54.750224+00:00",
        "meta_object_name": "COSMOS 2251 DEB",
        "meta_object_id": "1993-036BNM",
        "meta_epoch": "2025-12-14T09:22:45.259968",
        "meta_mean_motion": 14.42410404,
        "meta_eccentricity": 0.00160101,
        "meta_inclination": 74.0496,
        "meta_ra_of_asc_node": 212.6604,
        "meta_arg_of_pericenter": 313.2255,
        "meta_mean_anomaly": 226.6563,
        "meta_ephemeris_type": 0,
        "meta_classification_type": "U",
        "meta_norad_cat_id": 37532,
        "meta_element_set_no": 999,
        "meta_rev_at_epoch": 84939,
        "meta_bstar": 0.00027461522,
        "meta_mean_motion_dot": 8.83e-06,
        "meta_mean_motion_ddot": 0,
        "tle_line1": "1 37532U 93036BNM 25348.39080162  .00000883  00000+0  27462-3 0  9994",
        "tle_line2": "2 37532  74.0496 212.6604 0016010 313.2255 226.6563 14.42410404849399"
      },
      "geometry": {
        "type": "Point",
        "coordinates": [
          49.556814810481434,
          -53.30913184040289
        ]
      }
    }
  ]
}